[{"OBJECT_NAME":"FENGYUN 2H","OBJECT_ID":"2018-050A","EPOCH":"2026-04-27T00:12:41.004288","MEAN_MOTION":1.00274296,"ECCENTRICITY":0.00016726,"INCLINATION":2.9019,"RA_OF_ASC_NODE":79.6483,"ARG_OF_PERICENTER":158.5665,"MEAN_ANOMALY":59.218,"EPHEMERIS_TYPE":0,"CLASSIFICATION_TYPE":"U","NORAD_CAT_ID":43491,"ELEMENT_SET_NO":999,"REV_AT_EPOCH":2892,"BSTAR":0,"MEAN_MOTION_DOT":-1.38e-6,"MEAN_MOTION_DDOT":0},{"OBJECT_NAME":"FENGYUN 2H AKM","OBJECT_ID":"2018-050C","EPOCH":"2026-04-26T02:50:33.367200","MEAN_MOTION":1.00087284,"ECCENTRICITY":0.00892986,"INCLINATION":4.7361,"RA_OF_ASC_NODE":77.2426,"ARG_OF_PERICENTER":323.935,"MEAN_ANOMALY":35.4853,"EPHEMERIS_TYPE":0,"CLASSIFICATION_TYPE":"U","NORAD_CAT_ID":43497,"ELEMENT_SET_NO":999,"REV_AT_EPOCH":2878,"BSTAR":0,"MEAN_MOTION_DOT":1.0e-7,"MEAN_MOTION_DDOT":0},{"OBJECT_NAME":"TITAN 3C TRANSTAGE DEB","OBJECT_ID":"1969-013S","EPOCH":"2026-04-26T17:43:46.304832","MEAN_MOTION":0.97799605,"ECCENTRICITY":0.0227137,"INCLINATION":1.3975,"RA_OF_ASC_NODE":61.601,"ARG_OF_PERICENTER":46.4937,"MEAN_ANOMALY":315.3863,"EPHEMERIS_TYPE":0,"CLASSIFICATION_TYPE":"U","NORAD_CAT_ID":43514,"ELEMENT_SET_NO":999,"REV_AT_EPOCH":87785,"BSTAR":0,"MEAN_MOTION_DOT":-2.07e-6,"MEAN_MOTION_DDOT":0},{"OBJECT_NAME":"BEIDOU-2 IGSO-7","OBJECT_ID":"2018-057A","EPOCH":"2026-04-23T19:51:45.184320","MEAN_MOTION":1.00267626,"ECCENTRICITY":0.01032717,"INCLINATION":55.1848,"RA_OF_ASC_NODE":163.5332,"ARG_OF_PERICENTER":237.5854,"MEAN_ANOMALY":221.4335,"EPHEMERIS_TYPE":0,"CLASSIFICATION_TYPE":"U","NORAD_CAT_ID":43539,"ELEMENT_SET_NO":999,"REV_AT_EPOCH":2858,"BSTAR":0,"MEAN_MOTION_DOT":-9.9e-7,"MEAN_MOTION_DDOT":0},{"OBJECT_NAME":"TELSTAR 19V","OBJECT_ID":"2018-059A","EPOCH":"2026-04-27T04:27:38.603808","MEAN_MOTION":1.00270633,"ECCENTRICITY":0.0001747,"INCLINATION":0.0202,"RA_OF_ASC_NODE":183.274,"ARG_OF_PERICENTER":263.6152,"MEAN_ANOMALY":132.1896,"EPHEMERIS_TYPE":0,"CLASSIFICATION_TYPE":"U","NORAD_CAT_ID":43562,"ELEMENT_SET_NO":999,"REV_AT_EPOCH":2863,"BSTAR":0,"MEAN_MOTION_DOT":-2.9e-6,"MEAN_MOTION_DDOT":0},{"OBJECT_NAME":"TELKOM 4 (MERAH PUTIH)","OBJECT_ID":"2018-064A","EPOCH":"2026-04-27T02:53:38.567328","MEAN_MOTION":1.00272132,"ECCENTRICITY":0.00021254,"INCLINATION":0.0148,"RA_OF_ASC_NODE":242.3065,"ARG_OF_PERICENTER":185.3477,"MEAN_ANOMALY":298.8674,"EPHEMERIS_TYPE":0,"CLASSIFICATION_TYPE":"U","NORAD_CAT_ID":43587,"ELEMENT_SET_NO":999,"REV_AT_EPOCH":2836,"BSTAR":0,"MEAN_MOTION_DOT":-3.54e-6,"MEAN_MOTION_DDOT":0},{"OBJECT_NAME":"TELSTAR 18V","OBJECT_ID":"2018-069A","EPOCH":"2026-04-27T05:26:38.695200","MEAN_MOTION":1.00271858,"ECCENTRICITY":0.00020454,"INCLINATION":0.0137,"RA_OF_ASC_NODE":266.3051,"ARG_OF_PERICENTER":119.3408,"MEAN_ANOMALY":49.2363,"EPHEMERIS_TYPE":0,"CLASSIFICATION_TYPE":"U","NORAD_CAT_ID":43611,"ELEMENT_SET_NO":999,"REV_AT_EPOCH":2812,"BSTAR":0,"MEAN_MOTION_DOT":-3.04e-6,"MEAN_MOTION_DDOT":0},{"OBJECT_NAME":"AZERSPACE 2 (IS-38)","OBJECT_ID":"2018-074A","EPOCH":"2026-04-27T04:48:38.757312","MEAN_MOTION":1.00270976,"ECCENTRICITY":0.00014443,"INCLINATION":0.0215,"RA_OF_ASC_NODE":254.193,"ARG_OF_PERICENTER":133.4629,"MEAN_ANOMALY":304.8047,"EPHEMERIS_TYPE":0,"CLASSIFICATION_TYPE":"U","NORAD_CAT_ID":43632,"ELEMENT_SET_NO":999,"REV_AT_EPOCH":2793,"BSTAR":0,"MEAN_MOTION_DOT":1.26e-6,"MEAN_MOTION_DDOT":0},{"OBJECT_NAME":"HORIZONS-3E","OBJECT_ID":"2018-074B","EPOCH":"2026-04-27T02:34:38.741376","MEAN_MOTION":1.0027131,"ECCENTRICITY":6.656e-5,"INCLINATION":0.0414,"RA_OF_ASC_NODE":73.903,"ARG_OF_PERICENTER":260.1791,"MEAN_ANOMALY":88.6672,"EPHEMERIS_TYPE":0,"CLASSIFICATION_TYPE":"U","NORAD_CAT_ID":43633,"ELEMENT_SET_NO":999,"REV_AT_EPOCH":2782,"BSTAR":0,"MEAN_MOTION_DOT":-4.1e-7,"MEAN_MOTION_DDOT":0},{"OBJECT_NAME":"FENGYUN 2H DEB","OBJECT_ID":"2018-050D","EPOCH":"2026-04-26T10:52:10.242912","MEAN_MOTION":1.00306323,"ECCENTRICITY":0.0072719,"INCLINATION":4.769,"RA_OF_ASC_NODE":76.8282,"ARG_OF_PERICENTER":275.054,"MEAN_ANOMALY":84.1382,"EPHEMERIS_TYPE":0,"CLASSIFICATION_TYPE":"U","NORAD_CAT_ID":43645,"ELEMENT_SET_NO":999,"REV_AT_EPOCH":2840,"BSTAR":0,"MEAN_MOTION_DOT":4.5e-7,"MEAN_MOTION_DDOT":0},{"OBJECT_NAME":"FENGYUN 2G DEB","OBJECT_ID":"2014-090D","EPOCH":"2026-04-16T09:50:22.492320","MEAN_MOTION":1.00212607,"ECCENTRICITY":0.02257211,"INCLINATION":7.3851,"RA_OF_ASC_NODE":69.0078,"ARG_OF_PERICENTER":288.7859,"MEAN_ANOMALY":68.8007,"EPHEMERIS_TYPE":0,"CLASSIFICATION_TYPE":"U","NORAD_CAT_ID":43646,"ELEMENT_SET_NO":999,"REV_AT_EPOCH":4108,"BSTAR":0,"MEAN_MOTION_DOT":-9.1e-7,"MEAN_MOTION_DDOT":0},{"OBJECT_NAME":"AEHF-4 (USA 288)","OBJECT_ID":"2018-079A","EPOCH":"2026-04-27T04:35:38.533344","MEAN_MOTION":1.00266284,"ECCENTRICITY":0.00634164,"INCLINATION":1.4251,"RA_OF_ASC_NODE":359.5299,"ARG_OF_PERICENTER":357.9739,"MEAN_ANOMALY":218.929,"EPHEMERIS_TYPE":0,"CLASSIFICATION_TYPE":"U","NORAD_CAT_ID":43651,"ELEMENT_SET_NO":999,"REV_AT_EPOCH":2778,"BSTAR":0,"MEAN_MOTION_DOT":-2.87e-6,"MEAN_MOTION_DDOT":0},{"OBJECT_NAME":"BEIDOU-3 G1","OBJECT_ID":"2018-085A","EPOCH":"2026-04-27T08:05:20.046912","MEAN_MOTION":1.00265526,"ECCENTRICITY":0.00074002,"INCLINATION":2.9474,"RA_OF_ASC_NODE":98.7204,"ARG_OF_PERICENTER":333.3641,"MEAN_ANOMALY":64.4946,"EPHEMERIS_TYPE":0,"CLASSIFICATION_TYPE":"U","NORAD_CAT_ID":43683,"ELEMENT_SET_NO":999,"REV_AT_EPOCH":2755,"BSTAR":0,"MEAN_MOTION_DOT":-1.17e-6,"MEAN_MOTION_DDOT":0},{"OBJECT_NAME":"GSAT-29","OBJECT_ID":"2018-089A","EPOCH":"2026-04-27T04:40:38.535744","MEAN_MOTION":1.00271806,"ECCENTRICITY":0.00040099,"INCLINATION":0.0718,"RA_OF_ASC_NODE":258.7577,"ARG_OF_PERICENTER":126.51,"MEAN_ANOMALY":315.1403,"EPHEMERIS_TYPE":0,"CLASSIFICATION_TYPE":"U","NORAD_CAT_ID":43698,"ELEMENT_SET_NO":999,"REV_AT_EPOCH":2727,"BSTAR":0,"MEAN_MOTION_DOT":7.5e-7,"MEAN_MOTION_DDOT":0},{"OBJECT_NAME":"ES'HAIL 2","OBJECT_ID":"2018-090A","EPOCH":"2026-04-26T13:41:25.247040","MEAN_MOTION":1.0027461,"ECCENTRICITY":0.0001354,"INCLINATION":0.0402,"RA_OF_ASC_NODE":76.1329,"ARG_OF_PERICENTER":345.0735,"MEAN_ANOMALY":24.5116,"EPHEMERIS_TYPE":0,"CLASSIFICATION_TYPE":"U","NORAD_CAT_ID":43700,"ELEMENT_SET_NO":999,"REV_AT_EPOCH":2715,"BSTAR":0,"MEAN_MOTION_DOT":1.32e-6,"MEAN_MOTION_DDOT":0},{"OBJECT_NAME":"GEO-KOMPSAT-2A","OBJECT_ID":"2018-100A","EPOCH":"2026-04-27T05:34:38.641152","MEAN_MOTION":1.00270859,"ECCENTRICITY":0.00020336,"INCLINATION":0.0561,"RA_OF_ASC_NODE":68.1763,"ARG_OF_PERICENTER":358.2965,"MEAN_ANOMALY":0.6752,"EPHEMERIS_TYPE":0,"CLASSIFICATION_TYPE":"U","NORAD_CAT_ID":43823,"ELEMENT_SET_NO":999,"REV_AT_EPOCH":2711,"BSTAR":0,"MEAN_MOTION_DOT":-3.54e-6,"MEAN_MOTION_DDOT":0},{"OBJECT_NAME":"GSAT-11","OBJECT_ID":"2018-100B","EPOCH":"2026-04-27T02:50:38.609088","MEAN_MOTION":1.00272374,"ECCENTRICITY":0.00069854,"INCLINATION":0.0123,"RA_OF_ASC_NODE":246.8176,"ARG_OF_PERICENTER":183.2108,"MEAN_ANOMALY":261.7458,"EPHEMERIS_TYPE":0,"CLASSIFICATION_TYPE":"U","NORAD_CAT_ID":43824,"ELEMENT_SET_NO":999,"REV_AT_EPOCH":2696,"BSTAR":0,"MEAN_MOTION_DOT":-8.8e-7,"MEAN_MOTION_DDOT":0},{"OBJECT_NAME":"GSAT-7A","OBJECT_ID":"2018-105A","EPOCH":"2026-04-27T03:10:38.767296","MEAN_MOTION":1.00272409,"ECCENTRICITY":0.00022591,"INCLINATION":0.0518,"RA_OF_ASC_NODE":61.2397,"ARG_OF_PERICENTER":332.589,"MEAN_ANOMALY":291.7073,"EPHEMERIS_TYPE":0,"CLASSIFICATION_TYPE":"U","NORAD_CAT_ID":43864,"ELEMENT_SET_NO":999,"REV_AT_EPOCH":2693,"BSTAR":0,"MEAN_MOTION_DOT":1.6e-7,"MEAN_MOTION_DDOT":0},{"OBJECT_NAME":"COSMOS 2533","OBJECT_ID":"2018-107A","EPOCH":"2026-04-27T01:59:21.598368","MEAN_MOTION":1.00273056,"ECCENTRICITY":3.655e-5,"INCLINATION":0.044,"RA_OF_ASC_NODE":74.1859,"ARG_OF_PERICENTER":346.7981,"MEAN_ANOMALY":253.9233,"EPHEMERIS_TYPE":0,"CLASSIFICATION_TYPE":"U","NORAD_CAT_ID":43867,"ELEMENT_SET_NO":999,"REV_AT_EPOCH":2693,"BSTAR":0,"MEAN_MOTION_DOT":-4.9e-7,"MEAN_MOTION_DDOT":0},{"OBJECT_NAME":"BREEZE-M R/B","OBJECT_ID":"2018-107B","EPOCH":"2026-04-26T10:35:51.671328","MEAN_MOTION":0.90469764,"ECCENTRICITY":0.0723879,"INCLINATION":7.2879,"RA_OF_ASC_NODE":74.3641,"ARG_OF_PERICENTER":311.2042,"MEAN_ANOMALY":42.7358,"EPHEMERIS_TYPE":0,"CLASSIFICATION_TYPE":"U","NORAD_CAT_ID":43868,"ELEMENT_SET_NO":999,"REV_AT_EPOCH":2424,"BSTAR":0,"MEAN_MOTION_DOT":-1.55e-6,"MEAN_MOTION_DDOT":0},{"OBJECT_NAME":"TJS-3","OBJECT_ID":"2018-110A","EPOCH":"2026-04-26T18:34:26.682816","MEAN_MOTION":1.00762068,"ECCENTRICITY":0.0001024,"INCLINATION":2.4142,"RA_OF_ASC_NODE":81.0801,"ARG_OF_PERICENTER":23.1822,"MEAN_ANOMALY":162.7497,"EPHEMERIS_TYPE":0,"CLASSIFICATION_TYPE":"U","NORAD_CAT_ID":43874,"ELEMENT_SET_NO":999,"REV_AT_EPOCH":2690,"BSTAR":0,"MEAN_MOTION_DOT":-2.48e-6,"MEAN_MOTION_DDOT":0},{"OBJECT_NAME":"ZHONGXING-2D","OBJECT_ID":"2019-001A","EPOCH":"2026-04-27T00:27:09.616320","MEAN_MOTION":1.00269204,"ECCENTRICITY":8.982e-5,"INCLINATION":0.024,"RA_OF_ASC_NODE":326.1421,"ARG_OF_PERICENTER":15.3532,"MEAN_ANOMALY":10.3052,"EPHEMERIS_TYPE":0,"CLASSIFICATION_TYPE":"U","NORAD_CAT_ID":43920,"ELEMENT_SET_NO":999,"REV_AT_EPOCH":5356,"BSTAR":0,"MEAN_MOTION_DOT":-3.48e-6,"MEAN_MOTION_DDOT":0},{"OBJECT_NAME":"ATLAS 5 CENTAUR DEB","OBJECT_ID":"2014-055N","EPOCH":"2026-04-25T18:16:21.570528","MEAN_MOTION":1.81432556,"ECCENTRICITY":0.50399784,"INCLINATION":19.9762,"RA_OF_ASC_NODE":142.241,"ARG_OF_PERICENTER":164.7145,"MEAN_ANOMALY":219.1529,"EPHEMERIS_TYPE":0,"CLASSIFICATION_TYPE":"U","NORAD_CAT_ID":43959,"ELEMENT_SET_NO":999,"REV_AT_EPOCH":5071,"BSTAR":0,"MEAN_MOTION_DOT":-7.0e-8,"MEAN_MOTION_DDOT":0},{"OBJECT_NAME":"ATLAS 5 CENTAUR DEB","OBJECT_ID":"2014-055P","EPOCH":"2026-04-26T11:04:58.904832","MEAN_MOTION":1.81615087,"ECCENTRICITY":0.50544631,"INCLINATION":20.0344,"RA_OF_ASC_NODE":142.709,"ARG_OF_PERICENTER":164.5665,"MEAN_ANOMALY":219.6235,"EPHEMERIS_TYPE":0,"CLASSIFICATION_TYPE":"U","NORAD_CAT_ID":43960,"ELEMENT_SET_NO":999,"REV_AT_EPOCH":5070,"BSTAR":0,"MEAN_MOTION_DOT":-1.0e-8,"MEAN_MOTION_DDOT":0}]
